[Satellite]
VERSION=1.1
NAME=FLOCK 3P-73
NICKNAME=FLOCK 3P-73
TLE1=1 41981U 17008AK  18021.14965754  .00003217  00000-0  13645-3 0  9997
TLE2=2 41981  97.4718  86.8756 0009630 144.6178 215.5700 15.23810568 51689
